{
  "type": "FeatureCollection",
  "features": [
    {
      "type": "Feature",
      "properties": {
        "norad_id": 33733,
        "name": "FENGYUN 1C DEB",
        "group": "fengyun-1c-debris",
        "lat": -61.449522153076856,
        "lon": -127.28120220330636,
        "alt_km": 772.2070494978561,
        "timestamp": "2025-12-10T14:53:37.378077+00:00",
        "meta_object_name": "FENGYUN 1C DEB",
        "meta_object_id": "1999-025DHW",
        "meta_epoch": "2025-12-08T04:50:49.402752",
        "meta_mean_motion": 14.30867233,
        "meta_eccentricity": 0.00809024,
        "meta_inclination": 99.099,
        "meta_ra_of_asc_node": 67.3183,
        "meta_arg_of_pericenter": 183.3026,
        "meta_mean_anomaly": 206.7882,
        "meta_ephemeris_type": 0,
        "meta_classification_type": "U",
        "meta_norad_cat_id": 33733,
        "meta_element_set_no": 999,
        "meta_rev_at_epoch": 90383,
        "meta_bstar": 0.0048281586,
        "meta_mean_motion_dot": 0.00013108,
        "meta_mean_motion_ddot": 0,
        "tle_line1": "1 33733U 99025DHW 25342.20196068  .00013108  00000+0  48282-2 0  9990",
        "tle_line2": "2 33733  99.0990  67.3183 0080902 183.3026 206.7882 14.30867233903830"
      },
      "geometry": {
        "type": "Point",
        "coordinates": [
          -127.28120220330636,
          -61.449522153076856
        ]
      }
    },
    {
      "type": "Feature",
      "properties": {
        "norad_id": 33737,
        "name": "FENGYUN 1C DEB",
        "group": "fengyun-1c-debris",
        "lat": -68.37491707746767,
        "lon": -159.58028843735207,
        "alt_km": 797.4900768303805,
        "timestamp": "2025-12-10T14:53:37.378086+00:00",
        "meta_object_name": "FENGYUN 1C DEB",
        "meta_object_id": "1999-025DJA",
        "meta_epoch": "2025-12-10T02:06:28.738368",
        "meta_mean_motion": 14.02981867,
        "meta_eccentricity": 0.0128384,
        "meta_inclination": 98.3382,
        "meta_ra_of_asc_node": 178.2195,
        "meta_arg_of_pericenter": 290.6866,
        "meta_mean_anomaly": 190.1401,
        "meta_ephemeris_type": 0,
        "meta_classification_type": "U",
        "meta_norad_cat_id": 33737,
        "meta_element_set_no": 999,
        "meta_rev_at_epoch": 88703,
        "meta_bstar": 0.0016499667,
        "meta_mean_motion_dot": 2.714e-05,
        "meta_mean_motion_ddot": 0,
        "tle_line1": "1 33737U 99025DJA 25344.08783262  .00002714  00000+0  16500-2 0  9999",
        "tle_line2": "2 33737  98.3382 178.2195 0128384 290.6866 190.1401 14.02981867887032"
      },
      "geometry": {
        "type": "Point",
        "coordinates": [
          -159.58028843735207,
          -68.37491707746767
        ]
      }
    },
    {
      "type": "Feature",
      "properties": {
        "norad_id": 33738,
        "name": "FENGYUN 1C DEB",
        "group": "fengyun-1c-debris",
        "lat": -54.06558453859121,
        "lon": -148.1971210379162,
        "alt_km": 1020.8163233598998,
        "timestamp": "2025-12-10T14:53:37.378095+00:00",
        "meta_object_name": "FENGYUN 1C DEB",
        "meta_object_id": "1999-025DJB",
        "meta_epoch": "2025-12-10T03:36:13.485312",
        "meta_mean_motion": 13.99524499,
        "meta_eccentricity": 0.0184812,
        "meta_inclination": 99.1523,
        "meta_ra_of_asc_node": 44.1839,
        "meta_arg_of_pericenter": 28.5592,
        "meta_mean_anomaly": 358.6711,
        "meta_ephemeris_type": 0,
        "meta_classification_type": "U",
        "meta_norad_cat_id": 33738,
        "meta_element_set_no": 999,
        "meta_rev_at_epoch": 89200,
        "meta_bstar": 0.00065897829,
        "meta_mean_motion_dot": 1.069e-05,
        "meta_mean_motion_ddot": 0,
        "tle_line1": "1 33738U 99025DJB 25344.15015608  .00001069  00000+0  65898-3 0  9997",
        "tle_line2": "2 33738  99.1523  44.1839 0184812  28.5592 358.6711 13.99524499892004"
      },
      "geometry": {
        "type": "Point",
        "coordinates": [
          -148.1971210379162,
          -54.06558453859121
        ]
      }
    },
    {
      "type": "Feature",
      "properties": {
        "norad_id": 33740,
        "name": "FENGYUN 1C DEB",
        "group": "fengyun-1c-debris",
        "lat": 2.973202454272478,
        "lon": 178.05184644972113,
        "alt_km": 852.9353340075477,
        "timestamp": "2025-12-10T14:53:37.378104+00:00",
        "meta_object_name": "FENGYUN 1C DEB",
        "meta_object_id": "1999-025DJD",
        "meta_epoch": "2025-12-10T07:15:28.459872",
        "meta_mean_motion": 14.12320451,
        "meta_eccentricity": 0.00019683,
        "meta_inclination": 98.6873,
        "meta_ra_of_asc_node": 357.2885,
        "meta_arg_of_pericenter": 133.2312,
        "meta_mean_anomaly": 226.9024,
        "meta_ephemeris_type": 0,
        "meta_classification_type": "U",
        "meta_norad_cat_id": 33740,
        "meta_element_set_no": 999,
        "meta_rev_at_epoch": 90112,
        "meta_bstar": 0.00020380889,
        "meta_mean_motion_dot": 3.33e-06,
        "meta_mean_motion_ddot": 0,
        "tle_line1": "1 33740U 99025DJD 25344.30241273  .00000333  00000+0  20381-3 0  9997",
        "tle_line2": "2 33740  98.6873 357.2885 0001968 133.2312 226.9024 14.12320451901128"
      },
      "geometry": {
        "type": "Point",
        "coordinates": [
          178.05184644972113,
          2.973202454272478
        ]
      }
    },
    {
      "type": "Feature",
      "properties": {
        "norad_id": 33741,
        "name": "FENGYUN 1C DEB",
        "group": "fengyun-1c-debris",
        "lat": -55.01585176943921,
        "lon": 65.88452349516827,
        "alt_km": 938.8872940290457,
        "timestamp": "2025-12-10T14:53:37.378113+00:00",
        "meta_object_name": "FENGYUN 1C DEB",
        "meta_object_id": "1999-025DJE",
        "meta_epoch": "2025-12-10T05:16:21.730080",
        "meta_mean_motion": 14.09783238,
        "meta_eccentricity": 0.01274085,
        "meta_inclination": 98.5639,
        "meta_ra_of_asc_node": 257.9378,
        "meta_arg_of_pericenter": 95.4571,
        "meta_mean_anomaly": 266.1149,
        "meta_ephemeris_type": 0,
        "meta_classification_type": "U",
        "meta_norad_cat_id": 33741,
        "meta_element_set_no": 999,
        "meta_rev_at_epoch": 56827,
        "meta_bstar": 0.0027778288,
        "meta_mean_motion_dot": 5.225e-05,
        "meta_mean_motion_ddot": 0,
        "tle_line1": "1 33741U 99025DJE 25344.21969595  .00005225  00000+0  27778-2 0  9993",
        "tle_line2": "2 33741  98.5639 257.9378 0127408  95.4571 266.1149 14.09783238568276"
      },
      "geometry": {
        "type": "Point",
        "coordinates": [
          65.88452349516827,
          -55.01585176943921
        ]
      }
    },
    {
      "type": "Feature",
      "properties": {
        "norad_id": 33745,
        "name": "FENGYUN 1C DEB",
        "group": "fengyun-1c-debris",
        "lat": 39.854324096391544,
        "lon": -150.58557484957117,
        "alt_km": 840.583588111388,
        "timestamp": "2025-12-10T14:53:37.378123+00:00",
        "meta_object_name": "FENGYUN 1C DEB",
        "meta_object_id": "1999-025DJJ",
        "meta_epoch": "2025-12-09T12:54:35.581248",
        "meta_mean_motion": 14.22286162,
        "meta_eccentricity": 0.0053634,
        "meta_inclination": 99.1144,
        "meta_ra_of_asc_node": 20.5943,
        "meta_arg_of_pericenter": 275.368,
        "meta_mean_anomaly": 84.1379,
        "meta_ephemeris_type": 0,
        "meta_classification_type": "U",
        "meta_norad_cat_id": 33745,
        "meta_element_set_no": 999,
        "meta_rev_at_epoch": 65956,
        "meta_bstar": 0.0019638,
        "meta_mean_motion_dot": 4.382e-05,
        "meta_mean_motion_ddot": 0,
        "tle_line1": "1 33745U 99025DJJ 25343.53791182  .00004382  00000+0  19638-2 0  9995",
        "tle_line2": "2 33745  99.1144  20.5943 0053634 275.3680  84.1379 14.22286162659564"
      },
      "geometry": {
        "type": "Point",
        "coordinates": [
          -150.58557484957117,
          39.854324096391544
        ]
      }
    },
    {
      "type": "Feature",
      "properties": {
        "norad_id": 33747,
        "name": "FENGYUN 1C DEB",
        "group": "fengyun-1c-debris",
        "lat": 80.75831834128032,
        "lon": -20.748921791883504,
        "alt_km": 869.0092187299388,
        "timestamp": "2025-12-10T14:53:37.378132+00:00",
        "meta_object_name": "FENGYUN 1C DEB",
        "meta_object_id": "1999-025DJL",
        "meta_epoch": "2025-12-07T00:03:01.560960",
        "meta_mean_motion": 14.17338054,
        "meta_eccentricity": 0.00899301,
        "meta_inclination": 99.098,
        "meta_ra_of_asc_node": 75.547,
        "meta_arg_of_pericenter": 232.9564,
        "meta_mean_anomaly": 126.336,
        "meta_ephemeris_type": 0,
        "meta_classification_type": "U",
        "meta_norad_cat_id": 33747,
        "meta_element_set_no": 999,
        "meta_rev_at_epoch": 90051,
        "meta_bstar": 0.0039970984,
        "meta_mean_motion_dot": 8.373e-05,
        "meta_mean_motion_ddot": 0,
        "tle_line1": "1 33747U 99025DJL 25341.00210140  .00008373  00000+0  39971-2 0  9993",
        "tle_line2": "2 33747  99.0980  75.5470 0089930 232.9564 126.3360 14.17338054900511"
      },
      "geometry": {
        "type": "Point",
        "coordinates": [
          -20.748921791883504,
          80.75831834128032
        ]
      }
    }
  ]
}